CTC2_L_00669007-03
1 72838U 22410DD  26070.40853009  .00000000  00000+0  00000-0 0  9990
2 72838  50.0000 180.0000 0000000   0.0000 144.0000  1.97017143    17
CTC2_L_00669007-04
1 72839U 25463IO  26070.40853009  .00000000  00000+0  00000-0 0  9992
2 72839  50.0000 180.0000 0000000   0.0000 180.0000  1.97017143    18
CTC2_L_00669007-05
1 72840U 25697MO  26070.40853009  .00000000  00000+0  00000-0 0  9993
2 72840  50.0000 180.0000 0000000   0.0000 216.0000  1.97017143    10
CTC2_L_00669007-06
1 72841U 23631BV  26070.40853009  .00000000  00000+0  00000-0 0  9990
2 72841  50.0000 180.0000 0000000   0.0000 252.0000  1.97017143    11
CTC2_L_00669007-07
1 72842U 26723SR  26070.40853009  .00000000  00000+0  00000-0 0  9996
2 72842  50.0000 180.0000 0000000   0.0000 288.0000  1.97017143    11
CTC2_L_00669007-08
1 72843U 22088IM  26070.40853009  .00000000  00000+0  00000-0 0  9997
2 72843  50.0000 180.0000 0000000   0.0000 324.0000  1.97017143    13
CTC2_L_00669007-09
1 72844U 26614DH  26070.40853009  .00000000  00000+0  00000-0 0  9997
2 72844  50.0000 180.0000 0000000   0.0000   0.0000  1.97017143    15
CTC2_L_00669007-10
1 72845U 25088CP  26070.40853009  .00000000  00000+0  00000-0 0  9992
2 72845  50.0000 180.0000 0000000   0.0000  36.0000  1.97017143    15
CTC2_L_00669008-01
1 72846U 25610M   26070.40853009  .00000000  00000+0  00000-0 0  9994
2 72846  50.0000 210.0000 0000000   0.0000  84.0000  1.97017143    13
CTC2_L_00669008-02
1 72847U 26549TQ  26070.40853009  .00000000  00000+0  00000-0 0  9997
2 72847  50.0000 210.0000 0000000   0.0000 120.0000  1.97017143    15
CTC2_L_00669008-03
1 72848U 22125FV  26070.40853009  .00000000  00000+0  00000-0 0  9994
2 72848  50.0000 210.0000 0000000   0.0000 156.0000  1.97017143    15
CTC2_L_00669008-04
1 72849U 25933MK  26070.40853009  .00000000  00000+0  00000-0 0  9995
2 72849  50.0000 210.0000 0000000   0.0000 192.0000  1.97017143    16
CTC2_L_00669008-05
1 72850U 25921JZ  26070.40853009  .00000000  00000+0  00000-0 0  9994
2 72850  50.0000 210.0000 0000000   0.0000 228.0000  1.97017143    18
CTC2_L_00669008-06
1 72851U 25058S   26070.40853009  .00000000  00000+0  00000-0 0  9996
2 72851  50.0000 210.0000 0000000   0.0000 264.0000  1.97017143    19
CTC2_L_00669008-07
1 72852U 24743VY  26070.40853009  .00000000  00000+0  00000-0 0  9997
2 72852  50.0000 210.0000 0000000   0.0000 300.0000  1.97017143    11
CTC2_L_00669008-08
1 72853U 24849GL  26070.40853009  .00000000  00000+0  00000-0 0  9995
2 72853  50.0000 210.0000 0000000   0.0000 336.0000  1.97017143    11
CTC2_L_00669008-09
1 72854U 25001RS  26070.40853009  .00000000  00000+0  00000-0 0  9997
2 72854  50.0000 210.0000 0000000   0.0000  12.0000  1.97017143    13
CTC2_L_00669008-10
1 72855U 23801XO  26070.40853009  .00000000  00000+0  00000-0 0  9994
2 72855  50.0000 210.0000 0000000   0.0000  48.0000  1.97017143    13
CTC2_L_00669009-01
1 72856U 23768LE  26070.40853009  .00000000  00000+0  00000-0 0  9997
2 72856  50.0000 240.0000 0000000   0.0000  96.0000  1.97017143    10
CTC2_L_00669009-02
1 72857U 24165JZ  26070.40853009  .00000000  00000+0  00000-0 0  9990
2 72857  50.0000 240.0000 0000000   0.0000 132.0000  1.97017143    12
CTC2_L_00669009-03
1 72858U 26748VV  26070.40853009  .00000000  00000+0  00000-0 0  9990
2 72858  50.0000 240.0000 0000000   0.0000 168.0000  1.97017143    12
CTC2_L_00669009-04
1 72859U 22378FM  26070.40853009  .00000000  00000+0  00000-0 0  9996
2 72859  50.0000 240.0000 0000000   0.0000 204.0000  1.97017143    14
CTC2_L_00669009-05
1 72860U 24831NH  26070.40853009  .00000000  00000+0  00000-0 0  9994
2 72860  50.0000 240.0000 0000000   0.0000 240.0000  1.97017143    16
CTC2_L_00669009-06
1 72861U 24845LH  26070.40853009  .00000000  00000+0  00000-0 0  9990
2 72861  50.0000 240.0000 0000000   0.0000 276.0000  1.97017143    16
CTC2_L_00669009-07
1 72862U 24322AI  26070.40853009  .00000000  00000+0  00000-0 0  9991
2 72862  50.0000 240.0000 0000000   0.0000 312.0000  1.97017143    18
CTC2_L_00669009-08
1 72863U 22056LI  26070.40853009  .00000000  00000+0  00000-0 0  9994
2 72863  50.0000 240.0000 0000000   0.0000 348.0000  1.97017143    18
CTC2_L_00669009-09
1 72864U 23550MT  26070.40853009  .00000000  00000+0  00000-0 0  9995
2 72864  50.0000 240.0000 0000000   0.0000  24.0000  1.97017143    10
CTC2_L_00669009-10
1 72865U 24570CZ  26070.40853009  .00000000  00000+0  00000-0 0  9999
2 72865  50.0000 240.0000 0000000   0.0000  60.0000  1.97017143    11
CTC2_L_00669010-01
1 72866U 25840ZA  26070.40853009  .00000000  00000+0  00000-0 0  9991
2 72866  50.0000 270.0000 0000000   0.0000 108.0000  1.97017143    18
CTC2_L_00669010-02
1 72867U 25300CZ  26070.40853009  .00000000  00000+0  00000-0 0  9993
2 72867  50.0000 270.0000 0000000   0.0000 144.0000  1.97017143    19
CTC2_L_00669010-03
1 72868U 25026LC  26070.40853009  .00000000  00000+0  00000-0 0  9999
2 72868  50.0000 270.0000 0000000   0.0000 180.0000  1.97017143    10
CTC2_L_00669010-04
1 72869U 26403WW  26070.40853009  .00000000  00000+0  00000-0 0  9990
2 72869  50.0000 270.0000 0000000   0.0000 216.0000  1.97017143    11
CTC2_L_00669010-05
1 72870U 24075RX  26070.40853009  .00000000  00000+0  00000-0 0  9995
2 72870  50.0000 270.0000 0000000   0.0000 252.0000  1.97017143    13
CTC2_L_00669010-06
1 72871U 22227JX  26070.40853009  .00000000  00000+0  00000-0 0  9993
2 72871  50.0000 270.0000 0000000   0.0000 288.0000  1.97017143    13
CTC2_L_00669010-07
1 72872U 22312NP  26070.40853009  .00000000  00000+0  00000-0 0  9999
2 72872  50.0000 270.0000 0000000   0.0000 324.0000  1.97017143    15
CTC2_L_00669010-08
1 72873U 24029QB  26070.40853009  .00000000  00000+0  00000-0 0  9997
2 72873  50.0000 270.0000 0000000   0.0000   0.0000  1.97017143    17
CTC2_L_00669010-09
1 72874U 23163CW  26070.40853009  .00000000  00000+0  00000-0 0  9996
2 72874  50.0000 270.0000 0000000   0.0000  36.0000  1.97017143    17
CTC2_L_00669010-10
1 72875U 26219EK  26070.40853009  .00000000  00000+0  00000-0 0  9992
2 72875  50.0000 270.0000 0000000   0.0000  72.0000  1.97017143    18
CTC2_L_00669011-01
1 72876U 25285JZ  26070.40853009  .00000000  00000+0  00000-0 0  9995
2 72876  50.0000 300.0000 0000000   0.0000 120.0000  1.97017143    17
CTC2_L_00669011-02
1 72877U 25868LR  26070.40853009  .00000000  00000+0  00000-0 0  9993
2 72877  50.0000 300.0000 0000000   0.0000 156.0000  1.97017143    17
CTC2_L_00669011-03
1 72878U 23227JT  26070.40853009  .00000000  00000+0  00000-0 0  9991
2 72878  50.0000 300.0000 0000000   0.0000 192.0000  1.97017143    18
CTC2_L_00669011-04
1 72879U 24184YT  26070.40853009  .00000000  00000+0  00000-0 0  9995
2 72879  50.0000 300.0000 0000000   0.0000 228.0000  1.97017143    19
CTC2_L_00669011-05
1 72880U 22908DU  26070.40853009  .00000000  00000+0  00000-0 0  9999
2 72880  50.0000 300.0000 0000000   0.0000 264.0000  1.97017143    11
CTC2_L_00669011-06
1 72881U 25478VM  26070.40853009  .00000000  00000+0  00000-0 0  9995
2 72881  50.0000 300.0000 0000000   0.0000 300.0000  1.97017143    13
CTC2_L_00669011-07
1 72882U 25193DW  26070.40853009  .00000000  00000+0  00000-0 0  9990
2 72882  50.0000 300.0000 0000000   0.0000 336.0000  1.97017143    13
CTC2_L_00669011-08
1 72883U 22800IP  26070.40853009  .00000000  00000+0  00000-0 0  9993
2 72883  50.0000 300.0000 0000000   0.0000  12.0000  1.97017143    15
CTC2_L_00669011-09
1 72884U 24610RJ  26070.40853009  .00000000  00000+0  00000-0 0  9995
2 72884  50.0000 300.0000 0000000   0.0000  48.0000  1.97017143    15
CTC2_L_00669011-10
1 72885U 22873II  26070.40853009  .00000000  00000+0  00000-0 0  9995
2 72885  50.0000 300.0000 0000000   0.0000  84.0000  1.97017143    16
CTC2_L_00669012-01
1 72886U 22593W   26070.40853009  .00000000  00000+0  00000-0 0  9995
2 72886  50.0000 330.0000 0000000   0.0000 132.0000  1.97017143    14
CTC2_L_00669012-02
1 72887U 26257FN  26070.40853009  .00000000  00000+0  00000-0 0  9997
2 72887  50.0000 330.0000 0000000   0.0000 168.0000  1.97017143    14
CTC2_L_00669012-03
1 72888U 24762DI  26070.40853009  .00000000  00000+0  00000-0 0  9997
2 72888  50.0000 330.0000 0000000   0.0000 204.0000  1.97017143    16
CTC2_L_00669012-04
1 72889U 24974DR  26070.40853009  .00000000  00000+0  00000-0 0  9993
2 72889  50.0000 330.0000 0000000   0.0000 240.0000  1.97017143    17
CTC2_L_00669012-05
1 72890U 25733YF  26070.40853009  .00000000  00000+0  00000-0 0  9999
2 72890  50.0000 330.0000 0000000   0.0000 276.0000  1.97017143    18
CTC2_L_00669012-06
1 72891U 22464I   26070.40853009  .00000000  00000+0  00000-0 0  9998
2 72891  50.0000 330.0000 0000000   0.0000 312.0000  1.97017143    10
CTC2_L_00669012-07
1 72892U 25443HH  26070.40853009  .00000000  00000+0  00000-0 0  9999
2 72892  50.0000 330.0000 0000000   0.0000 348.0000  1.97017143    10
CTC2_L_00669012-08
1 72893U 26196TX  26070.40853009  .00000000  00000+0  00000-0 0  9996
2 72893  50.0000 330.0000 0000000   0.0000  24.0000  1.97017143    12
CTC2_L_00669012-09
1 72894U 25840UL  26070.40853009  .00000000  00000+0  00000-0 0  9992
2 72894  50.0000 330.0000 0000000   0.0000  60.0000  1.97017143    13
CTC2_L_00669012-10
1 72895U 23507LA  26070.40853009  .00000000  00000+0  00000-0 0  9991
2 72895  50.0000 330.0000 0000000   0.0000  96.0000  1.97017143    13
